NORAD_CAT_ID,OBJECT_NAME,OBJECT_TYPE,EPOCH,MEAN_MOTION,ECCENTRICITY,INCLINATION,RA_OF_ASC_NODE,ARG_OF_PERICENTER,MEAN_ANOMALY,BSTAR,MEAN_MOTION_DOT,MEAN_MOTION_DDOT,TLE_LINE0,TLE_LINE1,TLE_LINE2,SEMIMAJOR_AXIS,PERIOD,APOGEE,PERIGEE,DECAYED
53570.0,STARLINK-4550,PAYLOAD,2022-12-18 02:54:32,15.0882965,0.0002683,53.216,300.3305,28.4291,331.6847,3.6417e-05,2.91e-06,0.0,0 STARLINK-4550,1 53570U 22101AV  22352.12121279  .00000291  00000-0  36417-4 0  9992,2 53570  53.2160 300.3305 0002683  28.4291 331.6847 15.08829650 18676,6917.9119999999975,95.438,541.633,537.9209999999998,0.0
53570.0,STARLINK-4550,PAYLOAD,2022-12-18 07:40:41,15.08833961,0.00024,53.216,299.4382,38.4665,321.6498,9.4357e-05,1.213e-05,0.0,0 STARLINK-4550,1 53570U 22101AV  22352.31992930  .00001213  00000-0  94357-4 0  9995,2 53570  53.2160 299.4382 0002400  38.4665 321.6498 15.08833961 19393,6917.899,95.438,541.424,538.104,0.0
53570.0,STARLINK-4550,PAYLOAD,2022-12-18 14:02:13,15.0884405,0.0002377,53.216,298.2488,38.4969,321.6193,0.00011128,1.483e-05,0.0,0 STARLINK-4550,1 53570U 22101AV  22352.58488252  .00001483  00000-0  11128-3 0  9994,2 53570  53.2160 298.2488 0002377  38.4969 321.6193 15.08844050 18748,6917.868,95.437,541.377,538.089,0.0
53570.0,STARLINK-4550,PAYLOAD,2022-12-18 20:23:46,15.08839712,0.0002424,53.216,297.0595,39.7547,320.3623,0.00015547,2.187e-05,0.0,0 STARLINK-4550,1 53570U 22101AV  22352.84984444  .00002187  00000-0  15547-3 0  9998,2 53570  53.2160 297.0595 0002424  39.7547 320.3623 15.08839712 19477,6917.880999999999,95.438,541.423,538.069,0.0
53570.0,STARLINK-4550,PAYLOAD,2022-12-19 05:56:05,15.08842669,0.0002413,53.216,295.2752,41.2762,318.8412,5.945e-05,6.58e-06,0.0,0 STARLINK-4550,1 53570U 22101AV  22353.24728664  .00000658  00000-0  59450-4 0  9996,2 53570  53.2160 295.2752 0002413  41.2762 318.8412 15.08842669 18840,6917.871999999999,95.437,541.4069999999998,538.068,0.0
53570.0,STARLINK-4550,PAYLOAD,2022-12-19 13:53:01,15.08834664,0.0002312,53.2157,293.7878,42.5785,317.5386,6.6723e-05,7.74e-06,0.0,0 STARLINK-4550,1 53570U 22101AV  22353.57849146  .00000774  00000-0  66723-4 0  9991,2 53570  53.2157 293.7878 0002312  42.5785 317.5386 15.08834664 18892,6917.897,95.438,541.361,538.1619999999998,0.0
53570.0,STARLINK-4550,PAYLOAD,2022-12-20 02:36:06,15.088459599999998,0.0002316,53.216,291.4086,37.288,322.8273,3.4903e-05,2.67e-06,0.0,0 STARLINK-4550,1 53570U 22101AV  22354.10840547  .00000267  00000-0  34903-4 0  9999,2 53570  53.2160 291.4086 0002316  37.2880 322.8273 15.08845960 18977,6917.861999999999,95.437,541.3290000000002,538.125,0.0
53570.0,STARLINK-4550,PAYLOAD,2022-12-20 05:46:52,15.08849555,0.0002334,53.2161,290.8146,37.0928,323.0225,6.4562e-05,7.400000000000001e-06,0.0,0 STARLINK-4550,1 53570U 22101AV  22354.24088156  .00000740  00000-0  64562-4 0  9994,2 53570  53.2161 290.8146 0002334  37.0928 323.0225 15.08849555 19682,6917.851,95.437,541.331,538.102,0.0
53570.0,STARLINK-4550,PAYLOAD,2022-12-21 00:51:30,15.08834523,0.000213,53.2161,287.2455,39.5183,320.5964,-2.8118e-05,-7.36e-06,0.0,0 STARLINK-4550,1 53570U 22101AV  22355.03577065 -.00000736  00000-0 -28118-4 0  9998,2 53570  53.2161 287.2455 0002130  39.5183 320.5964 15.08834523 19118,6917.897,95.438,541.236,538.289,0.0
53570.0,STARLINK-4550,PAYLOAD,2022-12-21 02:26:54,15.08830315,0.000222,53.2152,286.9481,34.4784,325.6352,-0.00014289,-2.561e-05,0.0,0 STARLINK-4550,1 53570U 22101AV  22355.10201724 -.00002561  00000-0 -14289-3 0  9993,2 53570  53.2152 286.9481 0002220  34.4784 325.6352 15.08830315 19127,6917.91,95.438,541.311,538.239,0.0
53570.0,STARLINK-4550,PAYLOAD,2022-12-22 02:17:38,15.0886709,0.0002583999999999,53.2162,282.4879,32.5755,327.5396,0.00022077,3.2299999999999986e-05,0.0,0 STARLINK-4550,1 53570U 22101AV  22356.09558809  .00003230  00000-0  22077-3 0  9997,2 53570  53.2162 282.4879 0002584  32.5755 327.5396 15.08867090 19275,6917.7980000000025,95.436,541.45,537.875,0.0
53570.0,STARLINK-4550,PAYLOAD,2022-12-22 11:49:59,15.08839723,0.0002697,53.2161,280.7035,35.1998,324.9172,-5.0695e-05,-1.095e-05,0.0,0 STARLINK-4550,1 53570U 22101AV  22356.49305150 -.00001095  00000-0 -50695-4 0  9997,2 53570  53.2161 280.7035 0002697  35.1998 324.9172 15.08839723 20022,6917.880999999999,95.438,541.612,537.88,0.0
53570.0,STARLINK-4550,PAYLOAD,2022-12-23 02:08:28,15.08824638,0.0001937,53.216,278.0301,43.3413,316.7731,7.7311e-05,9.42e-06,0.0,0 STARLINK-4550,1 53570U 22101AV  22357.08921648  .00000942  00000-0  77311-4 0  9991,2 53570  53.2160 278.0301 0001937  43.3413 316.7731 15.08824638 19427,6917.927,95.439,541.132,538.452,0.0
53570.0,STARLINK-4550,PAYLOAD,2022-12-23 11:40:46,15.08833776,0.0002101,53.2164,276.2439,40.0658,320.0489,0.00014391,2.003e-05,0.0,0 STARLINK-4550,1 53570U 22101AV  22357.48665038  .00002003  00000-0  14391-3 0  9991,2 53570  53.2164 276.2439 0002101  40.0658 320.0489 15.08833776 20177,6917.899,95.438,541.2180000000002,538.311,0.0
53570.0,STARLINK-4550,PAYLOAD,2022-12-24 03:34:37,15.08857548,0.0002878,53.2162,273.2705,34.0833,326.0344,-0.00013572,-2.449e-05,0.0,0 STARLINK-4550,1 53570U 22101AV  22358.14904815 -.00002449  00000-0 -13572-3 0  9990,2 53570  53.2162 273.2705 0002878  34.0833 326.0344 15.08857548 19589,6917.8269999999975,95.436,541.683,537.701,0.0
53570.0,STARLINK-4550,PAYLOAD,2022-12-24 11:31:33,15.08851595,0.0002624,53.2151,271.7829,31.9862,328.1289,-0.00018836,-3.286e-05,0.0,0 STARLINK-4550,1 53570U 22101AV  22358.48024977 -.00003286  00000-0 -18836-3 0  9997,2 53570  53.2151 271.7829 0002624  31.9862 328.1289 15.08851595 19637,6917.845,95.437,541.525,537.895,0.0
53570.0,STARLINK-4550,PAYLOAD,2022-12-25 11:22:21,15.08835418,0.0002736,53.2159,267.3227,31.6715,328.4441,-4.5884e-05,-1.019e-05,0.0,0 STARLINK-4550,1 53570U 22101AV  22359.47385744 -.00001019  00000-0 -45884-4 0  9995,2 53570  53.2159 267.3227 0002736  31.6715 328.4441 15.08835418 19781,6917.894,95.438,541.6519999999998,537.867,0.0
53570.0,STARLINK-4550,PAYLOAD,2022-12-25 17:43:53,15.08835701,0.0002827,53.2158,266.1337,33.0886,327.0282,-5.460000000000001e-05,-1.157e-05,0.0,0 STARLINK-4550,1 53570U 22101AV  22359.73881837 -.00001157  00000-0 -54600-4 0  9997,2 53570  53.2158 266.1337 0002827  33.0886 327.0282 15.08835701 20511,6917.894,95.438,541.714,537.803,0.0
53570.0,STARLINK-4550,PAYLOAD,2022-12-26 01:40:50,15.08830911,0.0003306,53.2168,264.645,26.6192,333.4969,-0.00011966,-2.192e-05,0.0,0 STARLINK-4550,1 53570U 22101AV  22360.07002647 -.00002192  00000-0 -11966-3 0  9997,2 53570  53.2168 264.6450 0003306  26.6192 333.4969 15.08830911 19870,6917.908,95.438,542.06,537.486,0.0
53570.0,STARLINK-4550,PAYLOAD,2022-12-26 11:13:08,15.08836295,0.0003443,53.2172,262.8611,26.6401,333.4767,-5.5278e-05,-1.169e-05,0.0,0 STARLINK-4550,1 53570U 22101AV  22360.46746272 -.00001169  00000-0 -55278-4 0  9997,2 53570  53.2172 262.8611 0003443  26.6401 333.4767 15.08836295 19933,6917.892,95.438,542.139,537.375,0.0
53570.0,STARLINK-4550,PAYLOAD,2022-12-26 23:56:13,15.08847767,0.0003176,53.2168,260.4819,25.0137,335.1009,3.6018e-05,2.85e-06,0.0,0 STARLINK-4550,1 53570U 22101AV  22360.99737289  .00000285  00000-0  36018-4 0  9990,2 53570  53.2168 260.4819 0003176  25.0137 335.1009 15.08847767 20019,6917.857,95.437,541.919,537.525,0.0
53570.0,STARLINK-4550,PAYLOAD,2022-12-27 11:03:53,15.08855243,0.0003043,53.217,258.4001,31.3932,328.7241,0.00014603,2.037e-05,0.0,0 STARLINK-4550,1 53570U 22101AV  22361.46104078  .00002037  00000-0  14603-3 0  9999,2 53570  53.2170 258.4001 0003043  31.3932 328.7241 15.08855243 20775,6917.834,95.437,541.804,537.594,0.0
53570.0,STARLINK-4550,PAYLOAD,2022-12-27 22:11:35,15.08851179,0.0002420999999999,53.2172,256.319,40.0237,320.0933,0.00020468,2.972e-05,0.0,0 STARLINK-4550,1 53570U 22101AV  22361.92471706  .00002972  00000-0  20468-3 0  9999,2 53570  53.2172 256.3190 0002421  40.0237 320.0933 15.08851179 20842,6917.846,95.437,541.386,538.036,0.0
53570.0,STARLINK-4550,PAYLOAD,2022-12-27 23:46:59,15.08844588,0.0002657,53.2169,256.022,29.0919,331.0221,0.0001431999999999,1.992e-05,0.0,0 STARLINK-4550,1 53570U 22101AV  22361.99096260  .00001992  00000-0  14320-3 0  9995,2 53570  53.2169 256.0220 0002657  29.0919 331.0221 15.08844588 20853,6917.866,95.437,541.569,537.893,0.0
53570.0,STARLINK-4550,PAYLOAD,2022-12-29 02:48:34,15.08837351,0.0002495,53.2168,250.9672,33.6391,326.4759,-0.00017972,-3.147e-05,0.0,0 STARLINK-4550,1 53570U 22101AV  22363.11706182 -.00003147  00000-0 -17972-3 0  9994,2 53570  53.2168 250.9672 0002495  33.6391 326.4759 15.08837351 20338,6917.888000000001,95.438,541.479,538.0269999999998,0.0
53570.0,STARLINK-4550,PAYLOAD,2022-12-29 09:10:07,15.08827762,0.0002459,53.2162,249.7752,31.2772,328.8366,-0.00023726,-4.061e-05,0.0,0 STARLINK-4550,1 53570U 22101AV  22363.38203051 -.00004061  00000-0 -23726-3 0  9990,2 53570  53.2162 249.7752 0002459  31.2772 328.8366 15.08827762 20373,6917.918000000002,95.438,541.484,538.082,0.0
53570.0,STARLINK-4550,PAYLOAD,2022-12-30 02:39:22,15.08822664,0.0002881999999999,53.2166,246.5051,28.0221,332.0925,-0.00011867,-2.176e-05,0.0,0 STARLINK-4550,1 53570U 22101AV  22364.11067564 -.00002176  00000-0 -11867-3 0  9997,2 53570  53.2166 246.5051 0002882  28.0221 332.0925 15.08822664 21170,6917.933000000001,95.439,541.7919999999998,537.805,0.0
53570.0,STARLINK-4550,PAYLOAD,2022-12-31 02:30:08,15.08839576,0.0002744,53.2166,242.0454,29.0848,331.0296,0.00019606,2.833e-05,0.0,0 STARLINK-4550,1 53570U 22101AV  22365.10426229  .00002833  00000-0  19606-3 0  9991,2 53570  53.2166 242.0454 0002744  29.0848 331.0296 15.08839576 20631,6917.882,95.438,541.645,537.8480000000002,0.0
53570.0,STARLINK-4550,PAYLOAD,2022-12-31 08:51:40,15.08846627,0.0002718,53.2166,240.8565,31.5925,328.523,0.00026109,3.87e-05,0.0,0 STARLINK-4550,1 53570U 22101AV  22365.36921538  .00003870  00000-0  26109-3 0  9990,2 53570  53.2166 240.8565 0002718  31.5925 328.5230 15.08846627 20673,6917.86,95.437,541.605,537.845,0.0
